{
  "type": "FeatureCollection",
  "features": [
    {
      "type": "Feature",
      "properties": {
        "norad_id": 47013,
        "name": "FENGYUN 1C DEB",
        "group": "fengyun-1c-debris",
        "lat": -59.52878407178822,
        "lon": 73.46933796410559,
        "alt_km": 849.5249539235192,
        "timestamp": "2025-12-15T22:44:29.218927+00:00",
        "meta_object_name": "FENGYUN 1C DEB",
        "meta_object_id": "1999-025FAP",
        "meta_epoch": "2025-11-16T11:10:59.954016",
        "meta_mean_motion": 14.24672933,
        "meta_eccentricity": 0.00559466,
        "meta_inclination": 98.0819,
        "meta_ra_of_asc_node": 32.3431,
        "meta_arg_of_pericenter": 238.0397,
        "meta_mean_anomaly": 121.5338,
        "meta_ephemeris_type": 0,
        "meta_classification_type": "U",
        "meta_norad_cat_id": 47013,
        "meta_element_set_no": 999,
        "meta_rev_at_epoch": 72885,
        "meta_bstar": 0.0028202138,
        "meta_mean_motion_dot": 6.632e-05,
        "meta_mean_motion_ddot": 0,
        "tle_line1": "1 47013U 99025FAP 25320.46597169  .00006632  00000+0  28202-2 0  9991",
        "tle_line2": "2 47013  98.0819  32.3431 0055946 238.0397 121.5338 14.24672933728853"
      },
      "geometry": {
        "type": "Point",
        "coordinates": [
          73.46933796410559,
          -59.52878407178822
        ]
      }
    },
    {
      "type": "Feature",
      "properties": {
        "norad_id": 47015,
        "name": "FENGYUN 1C DEB",
        "group": "fengyun-1c-debris",
        "lat": 48.96717119357147,
        "lon": -122.88441682117902,
        "alt_km": 492.4673727535546,
        "timestamp": "2025-12-15T22:44:29.218937+00:00",
        "meta_object_name": "FENGYUN 1C DEB",
        "meta_object_id": "1999-025FAR",
        "meta_epoch": "2025-12-14T21:57:12.520800",
        "meta_mean_motion": 14.87408394,
        "meta_eccentricity": 0.01759524,
        "meta_inclination": 98.7101,
        "meta_ra_of_asc_node": 45.8366,
        "meta_arg_of_pericenter": 105.6228,
        "meta_mean_anomaly": 256.448,
        "meta_ephemeris_type": 0,
        "meta_classification_type": "U",
        "meta_norad_cat_id": 47015,
        "meta_element_set_no": 999,
        "meta_rev_at_epoch": 64414,
        "meta_bstar": 0.00051237919,
        "meta_mean_motion_dot": 6.095e-05,
        "meta_mean_motion_ddot": 0,
        "tle_line1": "1 47015U 99025FAR 25348.91472825  .00006095  00000+0  51238-3 0  9993",
        "tle_line2": "2 47015  98.7101  45.8366 0175952 105.6228 256.4480 14.87408394644146"
      },
      "geometry": {
        "type": "Point",
        "coordinates": [
          -122.88441682117902,
          48.96717119357147
        ]
      }
    },
    {
      "type": "Feature",
      "properties": {
        "norad_id": 47025,
        "name": "FENGYUN 1C DEB",
        "group": "fengyun-1c-debris",
        "lat": -0.17232611041461252,
        "lon": -163.2818444277896,
        "alt_km": 712.2718644593524,
        "timestamp": "2025-12-15T22:44:29.218947+00:00",
        "meta_object_name": "FENGYUN 1C DEB",
        "meta_object_id": "1999-025FBB",
        "meta_epoch": "2025-12-14T20:15:32.488128",
        "meta_mean_motion": 14.46327515,
        "meta_eccentricity": 0.00406551,
        "meta_inclination": 99.0332,
        "meta_ra_of_asc_node": 195.5156,
        "meta_arg_of_pericenter": 351.3377,
        "meta_mean_anomaly": 26.432,
        "meta_ephemeris_type": 0,
        "meta_classification_type": "U",
        "meta_norad_cat_id": 47025,
        "meta_element_set_no": 999,
        "meta_rev_at_epoch": 62772,
        "meta_bstar": 0.0016318651,
        "meta_mean_motion_dot": 5.866e-05,
        "meta_mean_motion_ddot": 0,
        "tle_line1": "1 47025U 99025FBB 25348.84412602  .00005866  00000+0  16319-2 0  9998",
        "tle_line2": "2 47025  99.0332 195.5156 0040655 351.3377  26.4320 14.46327515627726"
      },
      "geometry": {
        "type": "Point",
        "coordinates": [
          -163.2818444277896,
          -0.17232611041461252
        ]
      }
    },
    {
      "type": "Feature",
      "properties": {
        "norad_id": 47036,
        "name": "FENGYUN 1C DEB",
        "group": "fengyun-1c-debris",
        "lat": 15.89987031044617,
        "lon": -144.20439625241545,
        "alt_km": 829.3298604004776,
        "timestamp": "2025-12-15T22:44:29.218958+00:00",
        "meta_object_name": "FENGYUN 1C DEB",
        "meta_object_id": "1999-025FBN",
        "meta_epoch": "2025-12-13T21:36:35.845632",
        "meta_mean_motion": 14.15176928,
        "meta_eccentricity": 0.00688587,
        "meta_inclination": 98.7222,
        "meta_ra_of_asc_node": 31.2877,
        "meta_arg_of_pericenter": 94.4248,
        "meta_mean_anomaly": 84.992,
        "meta_ephemeris_type": 0,
        "meta_classification_type": "U",
        "meta_norad_cat_id": 47036,
        "meta_element_set_no": 999,
        "meta_rev_at_epoch": 59943,
        "meta_bstar": 0.0001889836,
        "meta_mean_motion_dot": 3.33e-06,
        "meta_mean_motion_ddot": 0,
        "tle_line1": "1 47036U 99025FBN 25347.90041488  .00000333  00000+0  18898-3 0  9995",
        "tle_line2": "2 47036  98.7222  31.2877 0068858  94.4248  84.9920 14.15176928599432"
      },
      "geometry": {
        "type": "Point",
        "coordinates": [
          -144.20439625241545,
          15.89987031044617
        ]
      }
    },
    {
      "type": "Feature",
      "properties": {
        "norad_id": 47040,
        "name": "FENGYUN 1C DEB",
        "group": "fengyun-1c-debris",
        "lat": -28.898929745728484,
        "lon": 71.38968877606858,
        "alt_km": 833.1715924905566,
        "timestamp": "2025-12-15T22:44:29.218968+00:00",
        "meta_object_name": "FENGYUN 1C DEB",
        "meta_object_id": "1999-025FBS",
        "meta_epoch": "2025-12-10T23:56:36.325824",
        "meta_mean_motion": 14.06483958,
        "meta_eccentricity": 0.00627252,
        "meta_inclination": 100.2943,
        "meta_ra_of_asc_node": 251.5252,
        "meta_arg_of_pericenter": 237.4301,
        "meta_mean_anomaly": 122.0795,
        "meta_ephemeris_type": 0,
        "meta_classification_type": "U",
        "meta_norad_cat_id": 47040,
        "meta_element_set_no": 999,
        "meta_rev_at_epoch": 89084,
        "meta_bstar": 0.00064394729,
        "meta_mean_motion_dot": 1.028e-05,
        "meta_mean_motion_ddot": 0,
        "tle_line1": "1 47040U 99025FBS 25344.99764266  .00001028  00000+0  64395-3 0  9997",
        "tle_line2": "2 47040 100.2943 251.5252 0062725 237.4301 122.0795 14.06483958890843"
      },
      "geometry": {
        "type": "Point",
        "coordinates": [
          71.38968877606858,
          -28.898929745728484
        ]
      }
    },
    {
      "type": "Feature",
      "properties": {
        "norad_id": 47041,
        "name": "FENGYUN 1C DEB",
        "group": "fengyun-1c-debris",
        "lat": -30.684123076548076,
        "lon": -168.24481157645408,
        "alt_km": 541.8415477859016,
        "timestamp": "2025-12-15T22:44:29.218978+00:00",
        "meta_object_name": "FENGYUN 1C DEB",
        "meta_object_id": "1999-025FBT",
        "meta_epoch": "2025-12-10T19:53:59.087040",
        "meta_mean_motion": 15.06982698,
        "meta_eccentricity": 0.00146942,
        "meta_inclination": 98.256,
        "meta_ra_of_asc_node": 11.2097,
        "meta_arg_of_pericenter": 191.3996,
        "meta_mean_anomaly": 344.1998,
        "meta_ephemeris_type": 0,
        "meta_classification_type": "U",
        "meta_norad_cat_id": 47041,
        "meta_element_set_no": 999,
        "meta_rev_at_epoch": 71160,
        "meta_bstar": 0.0030573384,
        "meta_mean_motion_dot": 0.00046063,
        "meta_mean_motion_ddot": 0,
        "tle_line1": "1 47041U 99025FBT 25344.82915610  .00046063  00000+0  30573-2 0  9999",
        "tle_line2": "2 47041  98.2560  11.2097 0014694 191.3996 344.1998 15.06982698711607"
      },
      "geometry": {
        "type": "Point",
        "coordinates": [
          -168.24481157645408,
          -30.684123076548076
        ]
      }
    },
    {
      "type": "Feature",
      "properties": {
        "norad_id": 47042,
        "name": "FENGYUN 1C DEB",
        "group": "fengyun-1c-debris",
        "lat": -10.27028302366015,
        "lon": -110.83325705321079,
        "alt_km": 787.4725450152346,
        "timestamp": "2025-12-15T22:44:29.218989+00:00",
        "meta_object_name": "FENGYUN 1C DEB",
        "meta_object_id": "1999-025FBU",
        "meta_epoch": "2025-12-11T22:52:31.155168",
        "meta_mean_motion": 14.22834675,
        "meta_eccentricity": 0.0055348,
        "meta_inclination": 99.0007,
        "meta_ra_of_asc_node": 243.4409,
        "meta_arg_of_pericenter": 36.8325,
        "meta_mean_anomaly": 24.4112,
        "meta_ephemeris_type": 0,
        "meta_classification_type": "U",
        "meta_norad_cat_id": 47042,
        "meta_element_set_no": 999,
        "meta_rev_at_epoch": 62510,
        "meta_bstar": 0.00041842,
        "meta_mean_motion_dot": 9.08e-06,
        "meta_mean_motion_ddot": 0,
        "tle_line1": "1 47042U 99025FBU 25345.95313837  .00000908  00000+0  41842-3 0  9998",
        "tle_line2": "2 47042  99.0007 243.4409 0055348  36.8325  24.4112 14.22834675625102"
      },
      "geometry": {
        "type": "Point",
        "coordinates": [
          -110.83325705321079,
          -10.27028302366015
        ]
      }
    }
  ]
}